# From MPEC 2019-TG9
129P/Shoemaker-Levy,e,3.4422,184.8770,307.7177,4.284282,0.1111442,0.08412902,310.3987,09/12.0/2021,2000,g 11.0,4.0
# From MPC 78188
130P/McNaught-Hughes,e,6.0625,70.2174,246.0295,3.383687,0.1583503,0.46138051,210.3026,09/12.0/2021,2000,g 10.0,6.0
# From MPC102101
131P/Mueller,e,7.3564,214.1529,179.0239,3.680291,0.1395985,0.34408131,134.2261,09/12.0/2021,2000,g 11.0,4.0
# From MPEC 2021-P47
132P/Helin-Roman-Alu,e,5.3827,173.9968,216.3445,3.886732,0.1286255,0.56473020,352.0118,09/12.0/2021,2000,g 11.0,6.0
# From MPC 94676
133P/Elst-Pizarro,e,1.3893,160.1040,131.8602,3.164948,0.1750468,0.15685289,190.1192,09/12.0/2021,2000,g 15.4,2.0
# From MPC 89012
134P/Kowal-Vavrova,e,4.3385,202.0683,18.8888,6.261226,0.0629093,0.58580452,168.2169,09/12.0/2021,2000,g 11.5,4.0
# From MPEC 2021-F20
135P/Shoemaker-Levy,e,6.0624,213.0257,22.3130,3.802455,0.1329254,0.29517012,332.4441,09/12.0/2021,2000,g  7.0,8.0
# From MPEC 2020-W26
136P/Mueller,e,9.4244,137.4491,224.9244,4.192710,0.1148053,0.29294433,221.2917,09/12.0/2021,2000,g 11.0,4.0
# From MPEC 2021-N06
137P/Shoemaker-Levy,e,4.8543,233.0176,141.0481,4.520613,0.1025435,0.57362357,102.8621,09/12.0/2021,2000,g 11.0,4.0
# From MPEC 2016-U66
138P/Shoemaker-Levy,e,10.0908,309.3283,95.5379,3.621791,0.1429944,0.53066745,123.4062,09/12.0/2021,2000,g 15.0,6.0
# From MPEC 2020-HN5
139P/Vaisala-Oterma,e,2.3343,242.1653,165.7122,4.521830,0.1025021,0.24698185,140.6551,09/12.0/2021,2000,g  9.5,4.0
# From MPEC 2015-E14
140P/Bowell-Skiff,e,3.8361,343.2651,172.8520,6.427538,0.0604835,0.69169604,134.8856,09/12.0/2021,2000,g 11.5,6.0
# From MPEC 2021-AJ0
141P/Machholz,e,13.9453,241.8388,153.5522,3.057317,0.1843714,0.73578341,49.7258,09/12.0/2021,2000,g 14.7,4.0
# From MPEC 2021-R75
142P/Ge-Wang,e,12.2510,175.9321,173.9520,5.000001,0.0881554,0.49740940,10.7891,09/12.0/2021,2000,g  8.5,6.0
# From MPEC 2021-N06
143P/Kowal-Mrkos,e,4.6989,245.2024,320.3750,4.281151,0.1112662,0.41091788,136.3942,09/12.0/2021,2000,g 13.5,2.0
# From MPC104795
144P/Kushida,e,3.9367,243.2093,216.3009,3.821072,0.1319551,0.63583265,245.7718,09/12.0/2021,2000,g  8.5,8.0
# From MPC108598
145P/Shoemaker-Levy,e,11.2746,26.7890,10.2395,4.138084,0.1170860,0.54161635,172.2835,09/12.0/2021,2000,g 13.5,4.0
# From MPC100284
146P/Shoemaker-LINEAR,e,23.1002,53.3920,316.9565,4.031844,0.1217442,0.64714605,231.1340,09/12.0/2021,2000,g 15.0,4.0
# From MPC 75720
147P/Kushida-Muramatsu,e,2.3260,92.8307,349.2694,4.009294,0.1227728,0.22652116,259.6417,09/12.0/2021,2000,g 14.0,4.0
# From MPEC 2014-R70
148P/Anderson-LINEAR,e,3.6578,89.2213,7.9599,3.620439,0.1430745,0.54995855,320.7152,09/12.0/2021,2000,g  9.0,4.0
# From MPC 75720
149P/Mueller,e,35.9507,144.4894,32.7940,4.137514,0.1171102,0.33231002,128.0875,09/12.0/2021,2000,g  8.0,8.0
# From MPC 75720
150P/LONEOS,e,18.5056,272.3595,245.5731,3.879382,0.1289912,0.54730218,242.1636,09/12.0/2021,2000,g 13.5,4.0
# From MPEC 2015-Q71
151P/Helin,e,4.7288,143.1582,216.0532,5.763296,0.0712357,0.57362119,154.0709,09/12.0/2021,2000,g 10.0,6.0
# From MPEC 2021-F20
152P/Helin-Lawrence,e,9.8801,91.8597,163.9265,4.477326,0.1040342,0.30874591,347.1410,09/12.0/2021,2000,g 12.6,4.0
# From MPC 46101
153P/Ikeya-Zhang,e,27.8569,93.1898,35.0516,50.59507,0.0027387,0.98962757,0.0000,03/05.1215/2002,2000,g  9.0,4.0
# From MPC 87068
154P/Brewington,e,17.6332,343.0406,47.8410,4.802489,0.0936493,0.67577272,265.7951,09/12.0/2021,2000,g  2.5,12.0
# From MPEC 2021-F20
155P/Shoemaker,e,6.3967,97.1903,14.6115,6.576418,0.0584413,0.72619057,38.9877,09/12.0/2021,2000,g 13.8,4.0
# From MPEC 2021-O56
156P/Russell-LINEAR,e,17.2628,35.3599,0.4413,3.461100,0.1530675,0.61488014,45.6298,09/12.0/2021,2000,g 15.5,2.0
# From MPEC 2021-P47
157P/Tritton,e,12.4383,287.6451,154.9225,3.550285,0.1473361,0.55747066,306.5858,09/12.0/2021,2000,g 10.0,4.0
# From MPEC 2021-R75
158P/Kowal-LINEAR,e,8.0075,135.5224,172.6321,5.029038,0.0873930,0.04572390,10.3852,09/12.0/2021,2000,g  9.0,4.0
# From MPEC 2021-N06
159P/LONEOS,e,23.4678,54.9746,4.5621,5.853673,0.0695923,0.38185530,84.1357,09/12.0/2021,2000,g 10.0,4.0
# From MPEC 2021-J28
160P/LINEAR,e,15.6173,333.3586,12.7172,3.774721,0.1343931,0.52633008,87.2930,09/12.0/2021,2000,g 15.5,2.0
# From MPC 75721
161P/Hartley-IRAS,e,95.7903,1.5571,46.9593,7.723902,0.0459144,0.83486081,272.5874,09/12.0/2021,2000,g  8.5,6.0
# From MPEC 2021-N06
162P/Siding Spring,e,27.5551,30.9035,357.1484,3.091257,0.1813432,0.58297690,50.4424,09/12.0/2021,2000,g 12.0,4.0
# From MPEC 2020-HN5
163P/NEAT,e,12.7089,102.0839,349.5961,3.767153,0.1347982,0.45191499,103.6588,09/12.0/2021,2000,g 14.5,4.0
# From MPEC 2021-F20
164P/Christensen,e,16.2574,88.2865,325.8329,3.656383,0.1409699,0.54018970,169.0950,09/12.0/2021,2000,g 11.0,4.0
# From MPC 75721
165P/LINEAR,e,15.8954,0.8499,125.9834,17.87431,0.0130425,0.61504653,101.6167,09/12.0/2021,2000,g 11.5,2.0
# From MPC 75722
166P/NEAT,e,15.3712,64.4308,321.4671,13.81762,0.0191891,0.38370929,135.4108,09/12.0/2021,2000,g  5.5,4.0
# From MPC 75722
167P/CINEOS,e,19.1185,295.6680,344.5719,16.22057,0.0150871,0.27184756,112.0626,09/12.0/2021,2000,g  9.5,2.0
# From MPC102101
168P/Hergenrother,e,21.6226,355.4520,14.9993,3.582267,0.1453674,0.62099912,111.7266,09/12.0/2021,2000,g 15.5,4.0
# From MPEC 2021-N06
169P/NEAT,e,11.2988,176.1072,218.0479,2.601353,0.2349120,0.76823225,289.3610,09/12.0/2021,2000,g 16.0,2.0
# From MPEC 2021-O56
170P/Christensen,e,10.1250,142.9226,225.6333,4.199149,0.1145413,0.30384601,292.8571,09/12.0/2021,2000,g 12.0,4.0
# From MPC102102
171P/Spahr,e,21.9352,101.6939,347.0709,3.555158,0.1470333,0.50161748,143.0270,09/12.0/2021,2000,g 13.5,4.0
# From MPEC 2021-BE3
172P/Yeung,e,11.2276,30.8888,209.4108,4.213526,0.1139556,0.20530770,187.4098,09/12.0/2021,2000,g 13.0,4.0
# From MPEC 2021-J28
173P/Mueller,e,16.4940,100.4022,29.2008,5.705340,0.0723239,0.26086452,353.0648,09/12.0/2021,2000,g  7.5,4.0
# From MPC 92985
174P/Echeclus,e,4.3434,173.2119,163.1360,10.72247,0.0280713,0.45744363,65.4472,09/12.0/2021,2000,g  9.4,2.0
# From MPC114608
175P/Hergenrother,e,6.0189,123.3199,57.6908,3.463777,0.1528900,0.43549569,107.9220,09/12.0/2021,2000,g 14.0,4.0
# From MPC 89015
176P/LINEAR,e,0.2347,345.9375,34.8882,3.194896,0.1725913,0.19309297,284.5609,09/12.0/2021,2000,g 15.1,2.0
# From MPEC 2020-L06
177P/Barnard,e,31.2598,272.2087,60.2830,24.43264,0.0081611,0.95533058,44.7827,09/12.0/2021,2000,g 15.0,4.0
# From MPEC 2021-F20
178P/Hug-Bell,e,11.0884,102.8709,297.7928,3.632075,0.1423875,0.48211125,60.1342,09/12.0/2021,2000,g 14.6,4.0
# From MPC 75723
179P/Jedicke,e,19.8979,115.5178,296.8293,5.934187,0.0681808,0.30602039,342.2950,09/12.0/2021,2000,g  2.5,8.0
# From MPC100284
180P/NEAT,e,16.8653,84.5692,94.7820,3.863549,0.1297850,0.35302209,273.2210,09/12.0/2021,2000,g 11.0,4.0
# From MPC 89012
181P/Shoemaker-Levy,e,17.4856,35.4077,336.2331,3.874039,0.1292582,0.70062364,344.6499,09/12.0/2021,2000,g 11.5,4.0
# From MPEC 2014-J10
182P/LONEOS,e,16.2247,72.4734,54.1967,2.951539,0.1943709,0.66317894,312.9153,09/12.0/2021,2000,g 18.0,4.0
# From MPEC 2021-R75
183P/Korlevic-Juric,e,18.8410,4.3636,166.9979,4.550980,0.1015189,0.13415115,139.8685,09/12.0/2021,2000,g 12.5,2.0
# From MPEC 2020-W26
184P/Lovas,e,4.5733,173.2490,186.4670,3.794225,0.1333581,0.55102538,42.7765,09/12.0/2021,2000,g 13.5,4.0
# From MPC109593
185P/Petriew,e,14.0087,214.1011,181.8736,3.098763,0.1806848,0.69935316,239.1118,09/12.0/2021,2000,g 15.0,4.0
# From MPEC 2021-R75
186P/Garradd,e,28.8632,326.6362,275.0059,4.913426,0.0904956,0.12161069,84.9152,09/12.0/2021,2000,g  7.5,4.0
# From MPEC 2020-SI8
187P/LINEAR,e,13.6342,109.9154,131.7888,4.568924,0.1009214,0.15205452,122.7512,09/12.0/2021,2000,g  9.0,4.0
# From MPC106349
188P/LINEAR-Mueller,e,10.5254,358.9643,26.5627,4.373609,0.1077567,0.41604836,179.6109,09/12.0/2021,2000,g 11.5,4.0
# From MPC106349
189P/NEAT,e,20.0692,281.7280,16.3000,2.946322,0.1948874,0.58875366,291.6313,09/12.0/2021,2000,g 19.0,4.0
# From MPEC 2020-K19
190P/Mueller,e,2.1743,335.5792,50.2840,4.233581,0.1131468,0.52157939,224.2967,09/12.0/2021,2000,g 13.0,4.0
# From MPEC 2021-BE3
191P/McNaught,e,8.8426,98.2327,284.0202,3.634565,0.1422412,0.38583254,25.0132,09/12.0/2021,2000,g 13.0,4.0
# From MPC 75724
192P/Shoemaker-Levy,e,24.5635,51.6177,312.9788,6.475435,0.0598137,0.77330948,301.0599,09/12.0/2021,2000,g 15.0,4.0
# From MPEC 2021-R75
193P/LINEAR-NEAT,e,10.6885,335.1743,8.1024,3.579083,0.1455615,0.39424542,2.5806,09/12.0/2021,2000,g 14.0,4.0
# From MPC 98566
194P/LINEAR,e,11.6580,350.1841,131.5061,3.995173,0.1234243,0.58395686,252.3852,09/12.0/2021,2000,g 16.0,4.0
# From MPC 75724
195P/Hill,e,36.3334,243.1227,249.2874,6.504088,0.0594189,0.31343497,275.9188,09/12.0/2021,2000,g  8.5,4.0
# From MPC 92985
196P/Tichy,e,19.2925,24.1549,12.1872,3.803120,0.1328905,0.42857269,305.1469,09/12.0/2021,2000,g 13.5,4.0
# From MPC 94676
197P/LINEAR,e,25.5324,66.3794,188.7507,2.867764,0.2029500,0.62953450,268.3325,09/12.0/2021,2000,g 16.5,2.0
# From NK 1596
198P/ODAS,e,1.3387,358.2549,69.1814,3.598399,0.1443910,0.44350340,144.8485,09/12.0/2021,2000,g  9.0,4.0
# From MPC 75725
199P/Shoemaker,e,24.9319,92.3760,191.6899,5.892126,0.0689122,0.50596563,312.1080,09/12.0/2021,2000,g 10.0,4.0
# From MPEC 2021-F20
200P/Larsen,e,12.0997,234.7847,134.1169,4.941829,0.0897165,0.33263344,69.5926,09/12.0/2021,2000,g  9.0,4.0
# From MPC 93588
201P/LONEOS,e,5.7390,19.7475,41.5452,3.353920,0.1604630,0.63703295,17.3820,09/12.0/2021,2000,g 14.0,4.0
# From MPEC 2021-N06
202P/Scotti,e,2.0883,177.9373,277.1925,4.064451,0.1202822,0.26528802,241.5640,09/12.0/2021,2000,g 13.5,4.0
# From MPEC 2021-F20
203P/Korlevic,e,2.9729,290.3404,154.7960,4.670705,0.0976406,0.31519338,54.3195,09/12.0/2021,2000,g 12.7,4.0
# From MPC 98566
204P/LINEAR-NEAT,e,6.5991,108.5744,356.3592,3.589873,0.1449057,0.48820701,297.6273,09/12.0/2021,2000,g 14.0,4.0
# From MPC 98566
205P/Giacobini,e,15.3045,179.6052,154.2094,3.542674,0.1478112,0.56809903,341.7559,09/12.0/2021,2000,g 13.0,4.0
# From MPC 75725
